[{"OBJECT_NAME":"TRANSPORTER-14 OBJECT AJ","OBJECT_ID":"2025-135AJ","EPOCH":"2026-03-09T23:01:26.659776","MEAN_MOTION":14.94645004,"ECCENTRICITY":8.275e-5,"INCLINATION":97.7608,"RA_OF_ASC_NODE":184.5717,"ARG_OF_PERICENTER":139.5374,"MEAN_ANOMALY":220.5908,"EPHEMERIS_TYPE":0,"CLASSIFICATION_TYPE":"U","NORAD_CAT_ID":64560,"ELEMENT_SET_NO":999,"REV_AT_EPOCH":3908,"BSTAR":0.00059250683,"MEAN_MOTION_DOT":6.366e-5,"MEAN_MOTION_DDOT":0},{"OBJECT_NAME":"OBJECT C","OBJECT_ID":"2025-274C","EPOCH":"2026-03-09T09:15:50.748192","MEAN_MOTION":14.92548925,"ECCENTRICITY":0.00113303,"INCLINATION":97.7436,"RA_OF_ASC_NODE":359.0846,"ARG_OF_PERICENTER":338.0419,"MEAN_ANOMALY":22.0314,"EPHEMERIS_TYPE":0,"CLASSIFICATION_TYPE":"U","NORAD_CAT_ID":66652,"ELEMENT_SET_NO":999,"REV_AT_EPOCH":1532,"BSTAR":0.00033513177,"MEAN_MOTION_DOT":3.392e-5,"MEAN_MOTION_DDOT":0}]
